{
  "type": "FeatureCollection",
  "features": [
    {
      "type": "Feature",
      "properties": {
        "norad_id": 33412,
        "name": "COSMO-SKYMED 3",
        "group": "resource",
        "lat": 31.04680153712147,
        "lon": 33.20364111191185,
        "alt_km": 536.9771307670153,
        "timestamp": "2025-12-23T20:42:36.729178+00:00",
        "meta_object_name": "COSMO-SKYMED 3",
        "meta_object_id": "2008-054A",
        "meta_epoch": "2025-12-23T05:41:47.418432",
        "meta_mean_motion": 15.05441687,
        "meta_eccentricity": 0.00170766,
        "meta_inclination": 97.8455,
        "meta_ra_of_asc_node": 207.8065,
        "meta_arg_of_pericenter": 137.312,
        "meta_mean_anomaly": 222.9436,
        "meta_ephemeris_type": 0,
        "meta_classification_type": "U",
        "meta_norad_cat_id": 33412,
        "meta_element_set_no": 999,
        "meta_rev_at_epoch": 93045,
        "meta_bstar": 0.00023784714,
        "meta_mean_motion_dot": 3.36e-05,
        "meta_mean_motion_ddot": 0,
        "tle_line1": "1 33412U 08054A   25357.23735438  .00003360  00000+0  23785-3 0  9996",
        "tle_line2": "2 33412  97.8455 207.8065 0017076 137.3120 222.9436 15.05441687930459"
      },
      "geometry": {
        "type": "Point",
        "coordinates": [
          33.20364111191185,
          31.04680153712147
        ]
      }
    },
    {
      "type": "Feature",
      "properties": {
        "norad_id": 33446,
        "name": "YAOGAN-4",
        "group": "resource",
        "lat": -57.27408379101903,
        "lon": -59.63584674171212,
        "alt_km": 619.1775471756273,
        "timestamp": "2025-12-23T20:42:36.729188+00:00",
        "meta_object_name": "YAOGAN-4",
        "meta_object_id": "2008-061A",
        "meta_epoch": "2025-12-23T01:32:09.119616",
        "meta_mean_motion": 14.8271129,
        "meta_eccentricity": 0.00130344,
        "meta_inclination": 97.9196,
        "meta_ra_of_asc_node": 287.0626,
        "meta_arg_of_pericenter": 286.8037,
        "meta_mean_anomaly": 73.1747,
        "meta_ephemeris_type": 0,
        "meta_classification_type": "U",
        "meta_norad_cat_id": 33446,
        "meta_element_set_no": 999,
        "meta_rev_at_epoch": 91956,
        "meta_bstar": 0.0001704414,
        "meta_mean_motion_dot": 1.323e-05,
        "meta_mean_motion_ddot": 0,
        "tle_line1": "1 33446U 08061A   25357.06399444  .00001323  00000+0  17044-3 0  9993",
        "tle_line2": "2 33446  97.9196 287.0626 0013034 286.8037  73.1747 14.82711290919563"
      },
      "geometry": {
        "type": "Point",
        "coordinates": [
          -59.63584674171212,
          -57.27408379101903
        ]
      }
    },
    {
      "type": "Feature",
      "properties": {
        "norad_id": 33492,
        "name": "GOSAT (IBUKI)",
        "group": "resource",
        "lat": 70.27025130512352,
        "lon": -50.36233001802736,
        "alt_km": 661.4046363963071,
        "timestamp": "2025-12-23T20:42:36.729199+00:00",
        "meta_object_name": "GOSAT (IBUKI)",
        "meta_object_id": "2009-002A",
        "meta_epoch": "2025-12-23T05:29:32.997696",
        "meta_mean_motion": 14.67544545,
        "meta_eccentricity": 0.00010025,
        "meta_inclination": 98.0771,
        "meta_ra_of_asc_node": 105.6864,
        "meta_arg_of_pericenter": 103.8146,
        "meta_mean_anomaly": 256.3171,
        "meta_ephemeris_type": 0,
        "meta_classification_type": "U",
        "meta_norad_cat_id": 33492,
        "meta_element_set_no": 999,
        "meta_rev_at_epoch": 90565,
        "meta_bstar": 0.00015015471,
        "meta_mean_motion_dot": 8.04e-06,
        "meta_mean_motion_ddot": 0,
        "tle_line1": "1 33492U 09002A   25357.22885414  .00000804  00000+0  15015-3 0  9994",
        "tle_line2": "2 33492  98.0771 105.6864 0001002 103.8146 256.3171 14.67544545905656"
      },
      "geometry": {
        "type": "Point",
        "coordinates": [
          -50.36233001802736,
          70.27025130512352
        ]
      }
    },
    {
      "type": "Feature",
      "properties": {
        "norad_id": 35681,
        "name": "DEIMOS-1",
        "group": "resource",
        "lat": 56.986074132784026,
        "lon": -10.008856868528538,
        "alt_km": 638.9301111880422,
        "timestamp": "2025-12-23T20:42:36.729210+00:00",
        "meta_object_name": "DEIMOS-1",
        "meta_object_id": "2009-041A",
        "meta_epoch": "2025-12-23T07:08:00.360096",
        "meta_mean_motion": 14.74968378,
        "meta_eccentricity": 0.00025389,
        "meta_inclination": 97.7151,
        "meta_ra_of_asc_node": 157.4093,
        "meta_arg_of_pericenter": 62.9326,
        "meta_mean_anomaly": 297.2143,
        "meta_ephemeris_type": 0,
        "meta_classification_type": "U",
        "meta_norad_cat_id": 35681,
        "meta_element_set_no": 999,
        "meta_rev_at_epoch": 88095,
        "meta_bstar": 0.00014413303,
        "meta_mean_motion_dot": 9.21e-06,
        "meta_mean_motion_ddot": 0,
        "tle_line1": "1 35681U 09041A   25357.29722639  .00000921  00000+0  14413-3 0  9996",
        "tle_line2": "2 35681  97.7151 157.4093 0002538  62.9326 297.2143 14.74968378880955"
      },
      "geometry": {
        "type": "Point",
        "coordinates": [
          -10.008856868528538,
          56.986074132784026
        ]
      }
    },
    {
      "type": "Feature",
      "properties": {
        "norad_id": 35682,
        "name": "DUBAISAT-1",
        "group": "resource",
        "lat": 43.03084781203893,
        "lon": 120.85482893702527,
        "alt_km": 646.8531969133601,
        "timestamp": "2025-12-23T20:42:36.729221+00:00",
        "meta_object_name": "DUBAISAT-1",
        "meta_object_id": "2009-041B",
        "meta_epoch": "2025-12-23T07:29:06.604800",
        "meta_mean_motion": 14.74631421,
        "meta_eccentricity": 0.00092661,
        "meta_inclination": 97.9797,
        "meta_ra_of_asc_node": 127.8364,
        "meta_arg_of_pericenter": 276.4831,
        "meta_mean_anomaly": 83.5323,
        "meta_ephemeris_type": 0,
        "meta_classification_type": "U",
        "meta_norad_cat_id": 35682,
        "meta_element_set_no": 999,
        "meta_rev_at_epoch": 87917,
        "meta_bstar": 0.00018557327,
        "meta_mean_motion_dot": 1.188e-05,
        "meta_mean_motion_ddot": 0,
        "tle_line1": "1 35682U 09041B   25357.31188200  .00001188  00000+0  18557-3 0  9999",
        "tle_line2": "2 35682  97.9797 127.8364 0009266 276.4831  83.5323 14.74631421879178"
      },
      "geometry": {
        "type": "Point",
        "coordinates": [
          120.85482893702527,
          43.03084781203893
        ]
      }
    },
    {
      "type": "Feature",
      "properties": {
        "norad_id": 35931,
        "name": "OCEANSAT-2",
        "group": "resource",
        "lat": 75.06170339495269,
        "lon": -149.8514505533616,
        "alt_km": 887.2769244758083,
        "timestamp": "2025-12-23T20:42:36.729232+00:00",
        "meta_object_name": "OCEANSAT-2",
        "meta_object_id": "2009-051A",
        "meta_epoch": "2025-12-23T06:29:51.948960",
        "meta_mean_motion": 13.99622881,
        "meta_eccentricity": 0.00159472,
        "meta_inclination": 98.2217,
        "meta_ra_of_asc_node": 356.8027,
        "meta_arg_of_pericenter": 17.408,
        "meta_mean_anomaly": 342.763,
        "meta_ephemeris_type": 0,
        "meta_classification_type": "U",
        "meta_norad_cat_id": 35931,
        "meta_element_set_no": 999,
        "meta_rev_at_epoch": 85472,
        "meta_bstar": -2.3938319e-05,
        "meta_mean_motion_dot": -7.2e-07,
        "meta_mean_motion_ddot": 0,
        "tle_line1": "1 35931U 09051A   25357.27074015 -.00000072  00000+0 -23938-4 0  9993",
        "tle_line2": "2 35931  98.2217 356.8027 0015947  17.4080 342.7630 13.99622881854729"
      },
      "geometry": {
        "type": "Point",
        "coordinates": [
          -149.8514505533616,
          75.06170339495269
        ]
      }
    },
    {
      "type": "Feature",
      "properties": {
        "norad_id": 35946,
        "name": "WORLDVIEW-2 (WV-2)",
        "group": "resource",
        "lat": -51.773583865253975,
        "lon": 79.70966335539656,
        "alt_km": 773.2710353982175,
        "timestamp": "2025-12-23T20:42:36.729243+00:00",
        "meta_object_name": "WORLDVIEW-2 (WV-2)",
        "meta_object_id": "2009-055A",
        "meta_epoch": "2025-12-23T04:15:05.994144",
        "meta_mean_motion": 14.37728531,
        "meta_eccentricity": 0.00048029,
        "meta_inclination": 98.4775,
        "meta_ra_of_asc_node": 68.1185,
        "meta_arg_of_pericenter": 45.126,
        "meta_mean_anomaly": 315.0316,
        "meta_ephemeris_type": 0,
        "meta_classification_type": "U",
        "meta_norad_cat_id": 35946,
        "meta_element_set_no": 999,
        "meta_rev_at_epoch": 85035,
        "meta_bstar": 7.44347e-05,
        "meta_mean_motion_dot": 1.8e-06,
        "meta_mean_motion_ddot": 0,
        "tle_line1": "1 35946U 09055A   25357.17715271  .00000180  00000+0  74435-4 0  9994",
        "tle_line2": "2 35946  98.4775  68.1185 0004802  45.1260 315.0316 14.37728531850351"
      },
      "geometry": {
        "type": "Point",
        "coordinates": [
          79.70966335539656,
          -51.773583865253975
        ]
      }
    }
  ]
}